IRIDIUM 39              
1 25042U 97069D   25303.52228128  .00000696  00000+0  17635-3 0  9992
2 25042  86.3925 153.1661 0016520 208.9087 151.1203 14.49411048468567
IRIDIUM 38              
1 25043U 97069E   25303.56522706  .00000557  00000+0  17689-3 0  9991
2 25043  86.4008 176.2567 0003309  50.9799 309.1693 14.38255465465414
IRIDIUM 42              
1 25077U 97077A   25303.66832946  .00000512  00000+0  16808-3 0  9991
2 25077  86.4018 182.5430 0002688  71.6054 288.5435 14.36482362460644
IRIDIUM 44              
1 25078U 97077B   25303.60432269  .00000548  00000+0  16653-3 0  9997
2 25078  86.3990 164.1567 0001304  24.3057 335.8203 14.40377011463193
IRIDIUM 45              
1 25104U 97082A   25303.17457029  .00033123  00000+0  10134-2 0  9998
2 25104  86.3579 342.0971 0104242 182.4564 177.6188 15.28408575472614
IRIDIUM 24              
1 25105U 97082B   25303.67971909  .00000688  00000+0  20249-3 0  9991
2 25105  86.3951  22.8128 0011056   1.4107 358.7122 14.42265710462749
IRIDIUM 51              
1 25262U 98018A   25303.59452818  .00076862  00000+0  10957-2 0  9990
2 25262  86.3800 348.2338 0066857  86.7218 274.1689 15.53384304467931
IRIDIUM 57              
1 25273U 98019B   25303.63974504  .00000582  00000+0  19360-3 0  9993
2 25273  86.3922  88.4679 0002053  87.6661 272.4771 14.35998485444229
