<?xml version="1.0" encoding="UTF-8"?>
<ndm xmlns:xsi="http://www.w3.org/2001/XMLSchema-instance" xsi:noNamespaceSchemaLocation="https://sanaregistry.org/r/ndmxml_unqualified/ndmxml-2.0.0-master-2.0.xsd">
<omm id="CCSDS_OMM_VERS" version="2.0">
<header><CREATION_DATE/><ORIGINATOR/></header><body><segment><metadata><OBJECT_NAME>IRIDIUM 39</OBJECT_NAME><OBJECT_ID>1997-069D</OBJECT_ID><CENTER_NAME>EARTH</CENTER_NAME><REF_FRAME>TEME</REF_FRAME><TIME_SYSTEM>UTC</TIME_SYSTEM><MEAN_ELEMENT_THEORY>SGP4</MEAN_ELEMENT_THEORY></metadata><data><meanElements><EPOCH>2025-10-30T12:32:05.102592</EPOCH><MEAN_MOTION>14.49411048</MEAN_MOTION><ECCENTRICITY>.00165202</ECCENTRICITY><INCLINATION>86.3925</INCLINATION><RA_OF_ASC_NODE>153.1661</RA_OF_ASC_NODE><ARG_OF_PERICENTER>208.9087</ARG_OF_PERICENTER><MEAN_ANOMALY>151.1203</MEAN_ANOMALY></meanElements><tleParameters><EPHEMERIS_TYPE>0</EPHEMERIS_TYPE><CLASSIFICATION_TYPE>U</CLASSIFICATION_TYPE><NORAD_CAT_ID>25042</NORAD_CAT_ID><ELEMENT_SET_NO>999</ELEMENT_SET_NO><REV_AT_EPOCH>46856</REV_AT_EPOCH><BSTAR>.17634708E-3</BSTAR><MEAN_MOTION_DOT>.696E-5</MEAN_MOTION_DOT><MEAN_MOTION_DDOT>0</MEAN_MOTION_DDOT></tleParameters></data></segment></body></omm>
<omm id="CCSDS_OMM_VERS" version="2.0">
<header><CREATION_DATE/><ORIGINATOR/></header><body><segment><metadata><OBJECT_NAME>IRIDIUM 38</OBJECT_NAME><OBJECT_ID>1997-069E</OBJECT_ID><CENTER_NAME>EARTH</CENTER_NAME><REF_FRAME>TEME</REF_FRAME><TIME_SYSTEM>UTC</TIME_SYSTEM><MEAN_ELEMENT_THEORY>SGP4</MEAN_ELEMENT_THEORY></metadata><data><meanElements><EPOCH>2025-10-30T13:33:55.617984</EPOCH><MEAN_MOTION>14.38255465</MEAN_MOTION><ECCENTRICITY>.00033095</ECCENTRICITY><INCLINATION>86.4008</INCLINATION><RA_OF_ASC_NODE>176.2567</RA_OF_ASC_NODE><ARG_OF_PERICENTER>50.9799</ARG_OF_PERICENTER><MEAN_ANOMALY>309.1693</MEAN_ANOMALY></meanElements><tleParameters><EPHEMERIS_TYPE>0</EPHEMERIS_TYPE><CLASSIFICATION_TYPE>U</CLASSIFICATION_TYPE><NORAD_CAT_ID>25043</NORAD_CAT_ID><ELEMENT_SET_NO>999</ELEMENT_SET_NO><REV_AT_EPOCH>46541</REV_AT_EPOCH><BSTAR>.17688915E-3</BSTAR><MEAN_MOTION_DOT>.557E-5</MEAN_MOTION_DOT><MEAN_MOTION_DDOT>0</MEAN_MOTION_DDOT></tleParameters></data></segment></body></omm>
<omm id="CCSDS_OMM_VERS" version="2.0">
<header><CREATION_DATE/><ORIGINATOR/></header><body><segment><metadata><OBJECT_NAME>IRIDIUM 42</OBJECT_NAME><OBJECT_ID>1997-077A</OBJECT_ID><CENTER_NAME>EARTH</CENTER_NAME><REF_FRAME>TEME</REF_FRAME><TIME_SYSTEM>UTC</TIME_SYSTEM><MEAN_ELEMENT_THEORY>SGP4</MEAN_ELEMENT_THEORY></metadata><data><meanElements><EPOCH>2025-10-30T16:02:23.665344</EPOCH><MEAN_MOTION>14.36482362</MEAN_MOTION><ECCENTRICITY>.00026888</ECCENTRICITY><INCLINATION>86.4018</INCLINATION><RA_OF_ASC_NODE>182.5430</RA_OF_ASC_NODE><ARG_OF_PERICENTER>71.6054</ARG_OF_PERICENTER><MEAN_ANOMALY>288.5435</MEAN_ANOMALY></meanElements><tleParameters><EPHEMERIS_TYPE>0</EPHEMERIS_TYPE><CLASSIFICATION_TYPE>U</CLASSIFICATION_TYPE><NORAD_CAT_ID>25077</NORAD_CAT_ID><ELEMENT_SET_NO>999</ELEMENT_SET_NO><REV_AT_EPOCH>46064</REV_AT_EPOCH><BSTAR>.16807913E-3</BSTAR><MEAN_MOTION_DOT>.512E-5</MEAN_MOTION_DOT><MEAN_MOTION_DDOT>0</MEAN_MOTION_DDOT></tleParameters></data></segment></body></omm>
<omm id="CCSDS_OMM_VERS" version="2.0">
<header><CREATION_DATE/><ORIGINATOR/></header><body><segment><metadata><OBJECT_NAME>IRIDIUM 44</OBJECT_NAME><OBJECT_ID>1997-077B</OBJECT_ID><CENTER_NAME>EARTH</CENTER_NAME><REF_FRAME>TEME</REF_FRAME><TIME_SYSTEM>UTC</TIME_SYSTEM><MEAN_ELEMENT_THEORY>SGP4</MEAN_ELEMENT_THEORY></metadata><data><meanElements><EPOCH>2025-10-30T14:30:13.480416</EPOCH><MEAN_MOTION>14.40377011</MEAN_MOTION><ECCENTRICITY>.00013044</ECCENTRICITY><INCLINATION>86.3990</INCLINATION><RA_OF_ASC_NODE>164.1567</RA_OF_ASC_NODE><ARG_OF_PERICENTER>24.3057</ARG_OF_PERICENTER><MEAN_ANOMALY>335.8203</MEAN_ANOMALY></meanElements><tleParameters><EPHEMERIS_TYPE>0</EPHEMERIS_TYPE><CLASSIFICATION_TYPE>U</CLASSIFICATION_TYPE><NORAD_CAT_ID>25078</NORAD_CAT_ID><ELEMENT_SET_NO>999</ELEMENT_SET_NO><REV_AT_EPOCH>46319</REV_AT_EPOCH><BSTAR>.16652999E-3</BSTAR><MEAN_MOTION_DOT>.548E-5</MEAN_MOTION_DOT><MEAN_MOTION_DDOT>0</MEAN_MOTION_DDOT></tleParameters></data></segment></body></omm>
<omm id="CCSDS_OMM_VERS" version="2.0">
<header><CREATION_DATE/><ORIGINATOR/></header><body><segment><metadata><OBJECT_NAME>IRIDIUM 45</OBJECT_NAME><OBJECT_ID>1997-082A</OBJECT_ID><CENTER_NAME>EARTH</CENTER_NAME><REF_FRAME>TEME</REF_FRAME><TIME_SYSTEM>UTC</TIME_SYSTEM><MEAN_ELEMENT_THEORY>SGP4</MEAN_ELEMENT_THEORY></metadata><data><meanElements><EPOCH>2025-10-30T04:11:22.873056</EPOCH><MEAN_MOTION>15.28408575</MEAN_MOTION><ECCENTRICITY>.01042429</ECCENTRICITY><INCLINATION>86.3579</INCLINATION><RA_OF_ASC_NODE>342.0971</RA_OF_ASC_NODE><ARG_OF_PERICENTER>182.4564</ARG_OF_PERICENTER><MEAN_ANOMALY>177.6188</MEAN_ANOMALY></meanElements><tleParameters><EPHEMERIS_TYPE>0</EPHEMERIS_TYPE><CLASSIFICATION_TYPE>U</CLASSIFICATION_TYPE><NORAD_CAT_ID>25104</NORAD_CAT_ID><ELEMENT_SET_NO>999</ELEMENT_SET_NO><REV_AT_EPOCH>47261</REV_AT_EPOCH><BSTAR>.1013377E-2</BSTAR><MEAN_MOTION_DOT>.33123E-3</MEAN_MOTION_DOT><MEAN_MOTION_DDOT>0</MEAN_MOTION_DDOT></tleParameters></data></segment></body></omm>
<omm id="CCSDS_OMM_VERS" version="2.0">
<header><CREATION_DATE/><ORIGINATOR/></header><body><segment><metadata><OBJECT_NAME>IRIDIUM 24</OBJECT_NAME><OBJECT_ID>1997-082B</OBJECT_ID><CENTER_NAME>EARTH</CENTER_NAME><REF_FRAME>TEME</REF_FRAME><TIME_SYSTEM>UTC</TIME_SYSTEM><MEAN_ELEMENT_THEORY>SGP4</MEAN_ELEMENT_THEORY></metadata><data><meanElements><EPOCH>2025-10-30T16:18:47.729376</EPOCH><MEAN_MOTION>14.42265710</MEAN_MOTION><ECCENTRICITY>.00110568</ECCENTRICITY><INCLINATION>86.3951</INCLINATION><RA_OF_ASC_NODE>22.8128</RA_OF_ASC_NODE><ARG_OF_PERICENTER>1.4107</ARG_OF_PERICENTER><MEAN_ANOMALY>358.7122</MEAN_ANOMALY></meanElements><tleParameters><EPHEMERIS_TYPE>0</EPHEMERIS_TYPE><CLASSIFICATION_TYPE>U</CLASSIFICATION_TYPE><NORAD_CAT_ID>25105</NORAD_CAT_ID><ELEMENT_SET_NO>999</ELEMENT_SET_NO><REV_AT_EPOCH>46274</REV_AT_EPOCH><BSTAR>.20249265E-3</BSTAR><MEAN_MOTION_DOT>.688E-5</MEAN_MOTION_DOT><MEAN_MOTION_DDOT>0</MEAN_MOTION_DDOT></tleParameters></data></segment></body></omm>
<omm id="CCSDS_OMM_VERS" version="2.0">
<header><CREATION_DATE/><ORIGINATOR/></header><body><segment><metadata><OBJECT_NAME>IRIDIUM 51</OBJECT_NAME><OBJECT_ID>1998-018A</OBJECT_ID><CENTER_NAME>EARTH</CENTER_NAME><REF_FRAME>TEME</REF_FRAME><TIME_SYSTEM>UTC</TIME_SYSTEM><MEAN_ELEMENT_THEORY>SGP4</MEAN_ELEMENT_THEORY></metadata><data><meanElements><EPOCH>2025-10-30T14:16:07.234752</EPOCH><MEAN_MOTION>15.53384304</MEAN_MOTION><ECCENTRICITY>.00668577</ECCENTRICITY><INCLINATION>86.3800</INCLINATION><RA_OF_ASC_NODE>348.2338</RA_OF_ASC_NODE><ARG_OF_PERICENTER>86.7218</ARG_OF_PERICENTER><MEAN_ANOMALY>274.1689</MEAN_ANOMALY></meanElements><tleParameters><EPHEMERIS_TYPE>0</EPHEMERIS_TYPE><CLASSIFICATION_TYPE>U</CLASSIFICATION_TYPE><NORAD_CAT_ID>25262</NORAD_CAT_ID><ELEMENT_SET_NO>999</ELEMENT_SET_NO><REV_AT_EPOCH>46793</REV_AT_EPOCH><BSTAR>.10956803E-2</BSTAR><MEAN_MOTION_DOT>.76862E-3</MEAN_MOTION_DOT><MEAN_MOTION_DDOT>0</MEAN_MOTION_DDOT></tleParameters></data></segment></body></omm>
<omm id="CCSDS_OMM_VERS" version="2.0">
<header><CREATION_DATE/><ORIGINATOR/></header><body><segment><metadata><OBJECT_NAME>IRIDIUM 57</OBJECT_NAME><OBJECT_ID>1998-019B</OBJECT_ID><CENTER_NAME>EARTH</CENTER_NAME><REF_FRAME>TEME</REF_FRAME><TIME_SYSTEM>UTC</TIME_SYSTEM><MEAN_ELEMENT_THEORY>SGP4</MEAN_ELEMENT_THEORY></metadata><data><meanElements><EPOCH>2025-10-30T15:21:13.971456</EPOCH><MEAN_MOTION>14.35998485</MEAN_MOTION><ECCENTRICITY>.00020534</ECCENTRICITY><INCLINATION>86.3922</INCLINATION><RA_OF_ASC_NODE>88.4679</RA_OF_ASC_NODE><ARG_OF_PERICENTER>87.6661</ARG_OF_PERICENTER><MEAN_ANOMALY>272.4771</MEAN_ANOMALY></meanElements><tleParameters><EPHEMERIS_TYPE>0</EPHEMERIS_TYPE><CLASSIFICATION_TYPE>U</CLASSIFICATION_TYPE><NORAD_CAT_ID>25273</NORAD_CAT_ID><ELEMENT_SET_NO>999</ELEMENT_SET_NO><REV_AT_EPOCH>44422</REV_AT_EPOCH><BSTAR>.19359583E-3</BSTAR><MEAN_MOTION_DOT>.582E-5</MEAN_MOTION_DOT><MEAN_MOTION_DDOT>0</MEAN_MOTION_DDOT></tleParameters></data></segment></body></omm>

</ndm>
